TEVEL2-4                
1 63213U 25052D   26068.69417973  .00020990  00000+0  70363-3 0  9998
2 63213  97.4009 325.1237 0004733  95.3468 264.8313 15.30925813 54879
STARLINK-34489          
1 64679U 25139R   26068.44860882  .00024079  00000+0  82255-3 0  9990
2 64679  53.1578 128.4109 0001342  81.6041 278.5112 15.30197442 40240
